{"type":"FeatureCollection","features":[{"type":"Feature","properties":{"part_id":8,"osm_id":"way/156772447","group":"nerval-01","eaves":3,"height":4.8,"description":"Maison basse et garage, volets gris","photos":"16","textured":true,"confidence":"Façade observée ; dimensions estimées"},"geometry":{"type":"Polygon","coordinates":[[[4.381462,48.948626],[4.381502,48.948585],[4.381547,48.948537],[4.381652,48.948581],[4.381628,48.948606],[4.381621,48.948603],[4.381606,48.948619],[4.381583,48.948643],[4.381612,48.948655],[4.381588,48.948681],[4.38146,48.948629],[4.381462,48.948626]]]}},{"type":"Feature","properties":{"part_id":9,"osm_id":"way/396619354","group":"nerval-01","eaves":3,"height":4.8,"description":"Maison basse et garage, volets gris","photos":"16","textured":false,"confidence":"Volume interprété ; façade peu visible"},"geometry":{"type":"Polygon","coordinates":[[[4.381502,48.948585],[4.381462,48.948626],[4.381434,48.948615],[4.381474,48.948573],[4.381502,48.948585]]]}},{"type":"Feature","properties":{"part_id":12,"osm_id":"way/156774701","group":"nerval-02","eaves":3,"height":4.9,"description":"Maison basse derrière la haie","photos":"16,17","textured":true,"confidence":"Façade observée ; dimensions estimées"},"geometry":{"type":"Polygon","coordinates":[[[4.381704,48.948375],[4.381806,48.948418],[4.381782,48.948443],[4.381775,48.948441],[4.381756,48.948461],[4.381736,48.948481],[4.381765,48.948493],[4.381741,48.948518],[4.381616,48.948466],[4.381704,48.948375]]]}},{"type":"Feature","properties":{"part_id":17,"osm_id":"way/156773599","group":"nerval-03","eaves":5.6,"height":7.1,"description":"Maison à étage, volets bruns, haie pourpre","photos":"17,13","textured":true,"confidence":"Façade observée ; dimensions estimées"},"geometry":{"type":"Polygon","coordinates":[[[4.381879,48.948384],[4.381766,48.948338],[4.381874,48.948222],[4.381987,48.948268],[4.381936,48.948323],[4.381879,48.948384]]]}},{"type":"Feature","properties":{"part_id":23,"osm_id":"way/156772386","group":"nerval-04","eaves":3,"height":4.9,"description":"Façades partiellement masquées par la végétation","photos":"17,18","textured":false,"confidence":"Volume interprété ; façade peu visible"},"geometry":{"type":"Polygon","coordinates":[[[4.381916,48.948116],[4.381951,48.948127],[4.381947,48.948132],[4.382047,48.948163],[4.382018,48.948204],[4.381882,48.948162],[4.381916,48.948116]]]}},{"type":"Feature","properties":{"part_id":25,"osm_id":"way/396532617","group":"nerval-04","eaves":3,"height":4.9,"description":"Façades partiellement masquées par la végétation","photos":"17,18","textured":false,"confidence":"Volume interprété ; façade peu visible"},"geometry":{"type":"Polygon","coordinates":[[[4.382047,48.948163],[4.381947,48.948132],[4.381951,48.948127],[4.381981,48.948086],[4.382091,48.94812],[4.382073,48.948145],[4.382057,48.948166],[4.382047,48.948163]]]}},{"type":"Feature","properties":{"part_id":26,"osm_id":"way/396532613","group":"nerval-04","eaves":3,"height":4.9,"description":"Façades partiellement masquées par la végétation","photos":"17,18","textured":false,"confidence":"Volume interprété ; façade peu visible"},"geometry":{"type":"Polygon","coordinates":[[[4.381882,48.948162],[4.381818,48.948141],[4.381822,48.948131],[4.381831,48.948106],[4.381836,48.948093],[4.381916,48.948116],[4.381882,48.948162]]]}},{"type":"Feature","properties":{"part_id":32,"osm_id":"way/156774876","group":"nerval-05","eaves":3,"height":6.8,"description":"Maison et garage, végétation en premier plan","photos":"12,18","textured":false,"confidence":"Volume interprété ; façade peu visible"},"geometry":{"type":"Polygon","coordinates":[[[4.381973,48.947992],[4.382091,48.948021],[4.382125,48.948029],[4.382107,48.94806],[4.381955,48.948023],[4.381973,48.947992]]]}},{"type":"Feature","properties":{"part_id":35,"osm_id":"way/396532586","group":"nerval-05","eaves":3,"height":6.8,"description":"Maison et garage, végétation en premier plan","photos":"12,18","textured":false,"confidence":"Volume interprété ; façade peu visible"},"geometry":{"type":"Polygon","coordinates":[[[4.381973,48.947992],[4.381955,48.948023],[4.381855,48.948003],[4.381853,48.947963],[4.381973,48.947992]]]}},{"type":"Feature","properties":{"part_id":37,"osm_id":"way/396532588","group":"nerval-05","eaves":3,"height":6.8,"description":"Maison et garage, végétation en premier plan","photos":"12,18","textured":false,"confidence":"Volume interprété ; façade peu visible"},"geometry":{"type":"Polygon","coordinates":[[[4.382091,48.948021],[4.381973,48.947992],[4.382009,48.947927],[4.382127,48.947956],[4.382107,48.947991],[4.382091,48.948021]]]}},{"type":"Feature","properties":{"part_id":41,"osm_id":"way/396532598","group":"nerval-06","eaves":3,"height":6.6,"description":"Maison et extension basse","photos":"11,18","textured":false,"confidence":"Volume interprété ; façade peu visible"},"geometry":{"type":"Polygon","coordinates":[[[4.38205,48.947825],[4.382154,48.947838],[4.382184,48.947842],[4.382173,48.947881],[4.382039,48.947864],[4.38205,48.947825]]]}},{"type":"Feature","properties":{"part_id":43,"osm_id":"way/396532616","group":"nerval-06","eaves":3,"height":6.6,"description":"Maison et extension basse","photos":"11,18","textured":false,"confidence":"Volume interprété ; façade peu visible"},"geometry":{"type":"Polygon","coordinates":[[[4.382039,48.947864],[4.382031,48.94789],[4.381949,48.947879],[4.38197,48.947806],[4.382037,48.947815],[4.382053,48.947817],[4.38205,48.947825],[4.382039,48.947864]]]}},{"type":"Feature","properties":{"part_id":44,"osm_id":"way/156772274","group":"nerval-06","eaves":3,"height":6.6,"description":"Maison et extension basse","photos":"11,18","textured":false,"confidence":"Volume interprété ; façade peu visible"},"geometry":{"type":"Polygon","coordinates":[[[4.38205,48.947825],[4.382053,48.947817],[4.382037,48.947815],[4.382051,48.947767],[4.38217,48.947783],[4.382163,48.947807],[4.382154,48.947838],[4.38205,48.947825]]]}},{"type":"Feature","properties":{"part_id":49,"osm_id":"way/156774459","group":"nerval-07","eaves":3.1,"height":7.1,"description":"Maison à pignon, partiellement floutée","photos":"11,18","textured":false,"confidence":"Volume interprété ; façade peu visible"},"geometry":{"type":"Polygon","coordinates":[[[4.382091,48.947738],[4.381924,48.94773],[4.381927,48.947702],[4.381957,48.947703],[4.381967,48.947616],[4.381967,48.947612],[4.382105,48.947618],[4.382099,48.947667],[4.382091,48.947738]]]}},{"type":"Feature","properties":{"part_id":50,"osm_id":"way/156772687","group":"nerval-07","eaves":3.1,"height":7.1,"description":"Maison à pignon, partiellement floutée","photos":"11,18","textured":false,"confidence":"Volume interprété ; façade peu visible"},"geometry":{"type":"Polygon","coordinates":[[[4.381967,48.947616],[4.381957,48.947703],[4.381927,48.947702],[4.381937,48.947614],[4.381967,48.947616]]]}},{"type":"Feature","properties":{"part_id":53,"osm_id":"way/156774561","group":"nerval-08","eaves":3,"height":4.8,"description":"Maison en grande partie floutée","photos":"18,20","textured":false,"confidence":"Volume interprété ; façade peu visible"},"geometry":{"type":"Polygon","coordinates":[[[4.381982,48.947556],[4.381988,48.947555],[4.38199,48.947587],[4.381849,48.947589],[4.381848,48.947558],[4.381858,48.947558],[4.381982,48.947556]]]}},{"type":"Feature","properties":{"part_id":57,"osm_id":"way/396532604","group":"nerval-08","eaves":3,"height":4.8,"description":"Maison en grande partie floutée","photos":"18,20","textured":false,"confidence":"Volume interprété ; façade peu visible"},"geometry":{"type":"Polygon","coordinates":[[[4.381982,48.947556],[4.381858,48.947558],[4.381856,48.947498],[4.38198,48.947496],[4.381981,48.947533],[4.381982,48.947556]]]}},{"type":"Feature","properties":{"part_id":64,"osm_id":"way/156772381","group":"nerval-09","eaves":3,"height":7.1,"description":"Pignon blanc sur rue, deux ouvertures visibles","photos":"20,21","textured":true,"confidence":"Façade observée ; dimensions estimées"},"geometry":{"type":"Polygon","coordinates":[[[4.381673,48.947376],[4.381669,48.947364],[4.381667,48.947357],[4.381721,48.947351],[4.381805,48.94734],[4.381827,48.947418],[4.381725,48.947431],[4.381732,48.947455],[4.381697,48.947459],[4.381673,48.947376]]]}},{"type":"Feature","properties":{"part_id":60,"osm_id":"way/396518173","group":"nerval-09","eaves":3,"height":7.1,"description":"Pignon blanc sur rue, deux ouvertures visibles","photos":"20,21","textured":false,"confidence":"Volume interprété ; façade peu visible"},"geometry":{"type":"Polygon","coordinates":[[[4.381589,48.947386],[4.381629,48.947381],[4.381653,48.947465],[4.381613,48.94747],[4.381602,48.947432],[4.381589,48.947386]]]}},{"type":"Feature","properties":{"part_id":61,"osm_id":"way/396518162","group":"nerval-09","eaves":3,"height":7.1,"description":"Pignon blanc sur rue, deux ouvertures visibles","photos":"20,21","textured":false,"confidence":"Volume interprété ; façade peu visible"},"geometry":{"type":"Polygon","coordinates":[[[4.381673,48.947376],[4.381697,48.947459],[4.381653,48.947465],[4.381629,48.947381],[4.381673,48.947376]]]}},{"type":"Feature","properties":{"part_id":67,"osm_id":"way/156772999","group":"nerval-09","eaves":3,"height":7.1,"description":"Pignon blanc sur rue, deux ouvertures visibles","photos":"20,21","textured":false,"confidence":"Volume interprété ; façade peu visible"},"geometry":{"type":"Polygon","coordinates":[[[4.381629,48.947381],[4.381589,48.947386],[4.381586,48.947374],[4.381625,48.947369],[4.381629,48.947381]]]}},{"type":"Feature","properties":{"part_id":68,"osm_id":"way/156773763","group":"nerval-09","eaves":3,"height":7.1,"description":"Pignon blanc sur rue, deux ouvertures visibles","photos":"20,21","textured":false,"confidence":"Volume interprété ; façade peu visible"},"geometry":{"type":"Polygon","coordinates":[[[4.381629,48.947381],[4.381625,48.947369],[4.381669,48.947364],[4.381673,48.947376],[4.381629,48.947381]]]}},{"type":"Feature","properties":{"part_id":10,"osm_id":"way/156772424","group":"nerval-10","eaves":3,"height":7.3,"description":"Maison d’angle, grande lucarne, portail vert","photos":"15,14,16","textured":true,"confidence":"Façade observée ; dimensions estimées"},"geometry":{"type":"Polygon","coordinates":[[[4.382132,48.948491],[4.382203,48.948518],[4.382231,48.948529],[4.382152,48.948619],[4.382037,48.948575],[4.382065,48.948543],[4.382076,48.948547],[4.382098,48.948522],[4.382127,48.948489],[4.382132,48.948491]]]}},{"type":"Feature","properties":{"part_id":11,"osm_id":"way/396532606","group":"nerval-10","eaves":3,"height":7.3,"description":"Maison d’angle, grande lucarne, portail vert","photos":"14,15,16","textured":false,"confidence":"Volume interprété ; façade peu visible"},"geometry":{"type":"Polygon","coordinates":[[[4.382132,48.948491],[4.382147,48.948473],[4.382166,48.94847],[4.382225,48.948492],[4.382203,48.948518],[4.382132,48.948491]]]}},{"type":"Feature","properties":{"part_id":13,"osm_id":"way/396532605","group":"nerval-11","eaves":3,"height":6.8,"description":"Maisons accolées, niveaux de façade distincts","photos":"13,15,17","textured":false,"confidence":"Volume interprété ; façade peu visible"},"geometry":{"type":"Polygon","coordinates":[[[4.382203,48.948414],[4.38227,48.948435],[4.382252,48.94846],[4.382161,48.948431],[4.382179,48.948406],[4.382203,48.948414]]]}},{"type":"Feature","properties":{"part_id":14,"osm_id":"way/156772470","group":"nerval-11","eaves":5.8,"height":7.199999999999999,"description":"Maisons accolées, niveaux de façade distincts","photos":"13,15,17","textured":true,"confidence":"Façade observée ; dimensions estimées"},"geometry":{"type":"Polygon","coordinates":[[[4.382353,48.948392],[4.382354,48.948393],[4.382313,48.948449],[4.38227,48.948435],[4.382203,48.948414],[4.382226,48.948383],[4.382244,48.948358],[4.382247,48.948359],[4.382353,48.948392]]]}},{"type":"Feature","properties":{"part_id":15,"osm_id":"way/396532592","group":"nerval-11","eaves":2.7,"height":3.9000000000000004,"description":"Maisons accolées, niveaux de façade distincts","photos":"13,15,17","textured":false,"confidence":"Volume interprété ; façade peu visible"},"geometry":{"type":"Polygon","coordinates":[[[4.382353,48.948392],[4.382247,48.948359],[4.382264,48.948335],[4.38237,48.948368],[4.38237,48.948369],[4.382353,48.948392]]]}},{"type":"Feature","properties":{"part_id":16,"osm_id":"way/156772304","group":"nerval-11","eaves":5.5,"height":7.3,"description":"Maisons accolées, niveaux de façade distincts","photos":"13,15,17","textured":true,"confidence":"Façade observée ; dimensions estimées"},"geometry":{"type":"Polygon","coordinates":[[[4.38239,48.948341],[4.382395,48.948343],[4.382375,48.94837],[4.38237,48.948369],[4.38237,48.948368],[4.382264,48.948335],[4.382255,48.948332],[4.382275,48.948305],[4.382282,48.948307],[4.38239,48.948341]]]}},{"type":"Feature","properties":{"part_id":18,"osm_id":"way/396532595","group":"nerval-11","eaves":3,"height":6.8,"description":"Maisons accolées, niveaux de façade distincts","photos":"13,15,17","textured":true,"confidence":"Façade observée ; dimensions estimées"},"geometry":{"type":"Polygon","coordinates":[[[4.38239,48.948341],[4.382282,48.948307],[4.382304,48.948278],[4.382321,48.948253],[4.382429,48.948287],[4.38239,48.948341]]]}},{"type":"Feature","properties":{"part_id":20,"osm_id":"way/156772822","group":"nerval-12","eaves":2.7,"height":3.4000000000000004,"description":"Maison à lucarne et garage","photos":"12,13,17","textured":false,"confidence":"Volume interprété ; façade peu visible"},"geometry":{"type":"Polygon","coordinates":[[[4.382396,48.948194],[4.382415,48.9482],[4.382385,48.94824],[4.382366,48.948234],[4.382385,48.948209],[4.382396,48.948194]]]}},{"type":"Feature","properties":{"part_id":21,"osm_id":"way/156774294","group":"nerval-12","eaves":5.4,"height":7.300000000000001,"description":"Maison à lucarne et garage","photos":"12,13,17","textured":true,"confidence":"Façade observée ; dimensions estimées"},"geometry":{"type":"Polygon","coordinates":[[[4.382409,48.948178],[4.382514,48.948211],[4.382472,48.948268],[4.382385,48.94824],[4.382415,48.9482],[4.382396,48.948194],[4.382409,48.948178]]]}},{"type":"Feature","properties":{"part_id":24,"osm_id":"way/156774345","group":"nerval-12","eaves":3,"height":7,"description":"Maison à lucarne et garage","photos":"12,13,17","textured":true,"confidence":"Façade observée ; dimensions estimées"},"geometry":{"type":"Polygon","coordinates":[[[4.382409,48.948178],[4.382426,48.948155],[4.382355,48.948132],[4.382397,48.948076],[4.382573,48.948133],[4.382514,48.948211],[4.382409,48.948178]]]}},{"type":"Feature","properties":{"part_id":30,"osm_id":"way/396532608","group":"nerval-13","eaves":2.7,"height":3.7,"description":"Toiture à quatre pans, portail bordeaux","photos":"11,12","textured":false,"confidence":"Volume interprété ; façade peu visible"},"geometry":{"type":"Polygon","coordinates":[[[4.382511,48.948039],[4.382589,48.948057],[4.382639,48.948069],[4.382624,48.948096],[4.382496,48.948067],[4.382511,48.948039]]]}},{"type":"Feature","properties":{"part_id":31,"osm_id":"way/156773139","group":"nerval-13","eaves":2.7,"height":3.7,"description":"Toiture à quatre pans, portail bordeaux","photos":"11,12","textured":false,"confidence":"Volume interprété ; façade peu visible"},"geometry":{"type":"Polygon","coordinates":[[[4.382496,48.948067],[4.382476,48.948062],[4.382484,48.948046],[4.382491,48.948034],[4.382511,48.948039],[4.382496,48.948067]]]}},{"type":"Feature","properties":{"part_id":34,"osm_id":"way/156774809","group":"nerval-13","eaves":3,"height":7.1,"description":"Toiture à quatre pans, portail bordeaux","photos":"11,12","textured":false,"confidence":"Volume interprété ; façade peu visible"},"geometry":{"type":"Polygon","coordinates":[[[4.382511,48.948039],[4.382491,48.948034],[4.382439,48.948022],[4.382482,48.947943],[4.382632,48.947978],[4.382589,48.948057],[4.382511,48.948039]]]}},{"type":"Feature","properties":{"part_id":39,"osm_id":"way/396532612","group":"nerval-14","eaves":2.7,"height":3.8000000000000003,"description":"Pignon blanc, garage et jardin","photos":"11,18","textured":false,"confidence":"Volume interprété ; façade peu visible"},"geometry":{"type":"Polygon","coordinates":[[[4.382634,48.947914],[4.382508,48.947907],[4.382511,48.947879],[4.382529,48.947866],[4.382559,48.947869],[4.38264,48.947873],[4.382634,48.947914]]]}},{"type":"Feature","properties":{"part_id":40,"osm_id":"way/156772574","group":"nerval-14","eaves":3,"height":7,"description":"Pignon blanc, garage et jardin","photos":"11,18","textured":true,"confidence":"Façade observée ; dimensions estimées"},"geometry":{"type":"Polygon","coordinates":[[[4.382567,48.947806],[4.382644,48.94781],[4.382733,48.947815],[4.382726,48.947875],[4.38276,48.947877],[4.382754,48.947921],[4.382634,48.947914],[4.38264,48.947873],[4.382559,48.947869],[4.382562,48.947842],[4.382567,48.947806]]]}},{"type":"Feature","properties":{"part_id":42,"osm_id":"way/156772784","group":"nerval-14","eaves":2.7,"height":3.7,"description":"Pignon blanc, garage et jardin","photos":"11,18","textured":false,"confidence":"Volume interprété ; façade peu visible"},"geometry":{"type":"Polygon","coordinates":[[[4.38276,48.947877],[4.382726,48.947875],[4.382733,48.947815],[4.382768,48.947817],[4.38276,48.947877]]]}},{"type":"Feature","properties":{"part_id":45,"osm_id":"way/396532603","group":"nerval-14","eaves":2.7,"height":3.8000000000000003,"description":"Pignon blanc, garage et jardin","photos":"11,18","textured":false,"confidence":"Volume interprété ; façade peu visible"},"geometry":{"type":"Polygon","coordinates":[[[4.382567,48.947806],[4.382556,48.947805],[4.382547,48.947763],[4.382633,48.947757],[4.382644,48.94781],[4.382567,48.947806]]]}},{"type":"Feature","properties":{"part_id":46,"osm_id":"way/156774181","group":"nerval-14","eaves":2.7,"height":3.2,"description":"Pignon blanc, garage et jardin","photos":"11,18","textured":false,"confidence":"Volume interprété ; façade peu visible"},"geometry":{"type":"Polygon","coordinates":[[[4.382743,48.947805],[4.382745,48.947776],[4.382772,48.947776],[4.382773,48.947773],[4.382823,48.947775],[4.382821,48.947808],[4.382743,48.947805]]]}},{"type":"Feature","properties":{"part_id":47,"osm_id":"way/156772254","group":"nerval-15","eaves":2.7,"height":3.9000000000000004,"description":"Toiture à deux pans et abri latéral","photos":"10,11,18","textured":false,"confidence":"Volume interprété ; façade peu visible"},"geometry":{"type":"Polygon","coordinates":[[[4.382627,48.947724],[4.382633,48.947724],[4.382638,48.947757],[4.382633,48.947757],[4.382547,48.947763],[4.38246,48.94777],[4.382454,48.947737],[4.382498,48.947734],[4.382627,48.947724]]]}},{"type":"Feature","properties":{"part_id":48,"osm_id":"way/396532601","group":"nerval-15","eaves":3,"height":7.1,"description":"Toiture à deux pans et abri latéral","photos":"18,10,11","textured":true,"confidence":"Façade observée ; dimensions estimées"},"geometry":{"type":"Polygon","coordinates":[[[4.382498,48.947734],[4.382493,48.947702],[4.382487,48.947664],[4.382615,48.947654],[4.382627,48.947724],[4.382498,48.947734]]]}},{"type":"Feature","properties":{"part_id":51,"osm_id":"way/396532593","group":"nerval-16","eaves":2.6,"height":3.6,"description":"Secteur 17, lucarne et volets rouges","photos":"09,10,18","textured":false,"confidence":"Volume interprété ; façade peu visible"},"geometry":{"type":"Polygon","coordinates":[[[4.382428,48.947607],[4.382529,48.94756],[4.382551,48.947556],[4.382591,48.947594],[4.382449,48.947627],[4.382428,48.947607]]]}},{"type":"Feature","properties":{"part_id":54,"osm_id":"way/396532597","group":"nerval-16","eaves":3,"height":7.1,"description":"Secteur 17, lucarne et volets rouges","photos":"10,09,18","textured":true,"confidence":"Façade observée ; dimensions estimées"},"geometry":{"type":"Polygon","coordinates":[[[4.382378,48.947561],[4.382479,48.947514],[4.382529,48.94756],[4.382428,48.947607],[4.382403,48.947584],[4.382378,48.947561]]]}},{"type":"Feature","properties":{"part_id":56,"osm_id":"way/156772314","group":"nerval-16","eaves":5.5,"height":7.1,"description":"Secteur 17, lucarne et volets rouges","photos":"10,09,18","textured":true,"confidence":"Façade observée ; dimensions estimées"},"geometry":{"type":"Polygon","coordinates":[[[4.382479,48.947514],[4.382378,48.947561],[4.382373,48.947563],[4.382347,48.947539],[4.382459,48.947487],[4.382485,48.947511],[4.382479,48.947514]]]}},{"type":"Feature","properties":{"part_id":58,"osm_id":"way/156774774","group":"nerval-17","eaves":5.5,"height":7.1,"description":"Secteur 19, garage et volets bruns","photos":"10,09","textured":true,"confidence":"Façade observée ; dimensions estimées"},"geometry":{"type":"Polygon","coordinates":[[[4.382333,48.94751],[4.382426,48.947466],[4.382433,48.947463],[4.382459,48.947487],[4.382347,48.947539],[4.382321,48.947515],[4.382333,48.94751]]]}},{"type":"Feature","properties":{"part_id":59,"osm_id":"way/396532607","group":"nerval-17","eaves":3,"height":7.1,"description":"Secteur 19, garage et volets bruns","photos":"09,10","textured":true,"confidence":"Volume interprété ; façade peu visible"},"geometry":{"type":"Polygon","coordinates":[[[4.382426,48.947466],[4.382333,48.94751],[4.382313,48.947492],[4.382277,48.947459],[4.382371,48.947415],[4.382426,48.947466]]]}},{"type":"Feature","properties":{"part_id":62,"osm_id":"way/396532589","group":"nerval-18","eaves":3,"height":7.1,"description":"Secteur 21, garage en contrebas","photos":"09,19","textured":true,"confidence":"Façade observée ; dimensions estimées"},"geometry":{"type":"Polygon","coordinates":[[[4.382317,48.947365],[4.382371,48.947415],[4.382277,48.947459],[4.382257,48.94744],[4.382223,48.947408],[4.382317,48.947365]]]}},{"type":"Feature","properties":{"part_id":66,"osm_id":"way/156774625","group":"nerval-18","eaves":5.5,"height":7.1,"description":"Secteur 21, garage en contrebas","photos":"09,19","textured":true,"confidence":"Façade observée ; dimensions estimées"},"geometry":{"type":"Polygon","coordinates":[[[4.382317,48.947365],[4.382223,48.947408],[4.382211,48.947414],[4.382184,48.947389],[4.382297,48.947336],[4.382324,48.947361],[4.382317,48.947365]]]}},{"type":"Feature","properties":{"part_id":69,"osm_id":"way/156774681","group":"nerval-19","eaves":5.5,"height":7.1,"description":"Secteur 23, façade crème, volets bruns","photos":"09,08,19","textured":true,"confidence":"Façade observée ; dimensions estimées"},"geometry":{"type":"Polygon","coordinates":[[[4.382265,48.947314],[4.382271,48.947312],[4.382297,48.947336],[4.382184,48.947389],[4.382158,48.947365],[4.382166,48.947361],[4.382265,48.947314]]]}},{"type":"Feature","properties":{"part_id":70,"osm_id":"way/396532594","group":"nerval-19","eaves":3,"height":7.1,"description":"Secteur 23, façade crème, volets bruns","photos":"08,09,19","textured":true,"confidence":"Façade observée ; dimensions estimées"},"geometry":{"type":"Polygon","coordinates":[[[4.382166,48.947361],[4.382145,48.947342],[4.382112,48.947311],[4.382212,48.947265],[4.382265,48.947314],[4.382166,48.947361]]]}},{"type":"Feature","properties":{"part_id":72,"osm_id":"way/156773160","group":"nerval-20","eaves":2.7,"height":3.7,"description":"Maison basse, portes-fenêtres et garage latéral","photos":"07,08,19","textured":false,"confidence":"Volume interprété ; façade peu visible"},"geometry":{"type":"Polygon","coordinates":[[[4.382142,48.947264],[4.382114,48.947276],[4.382085,48.947249],[4.382112,48.947236],[4.382142,48.947264]]]}},{"type":"Feature","properties":{"part_id":74,"osm_id":"way/396532600","group":"nerval-20","eaves":2.7,"height":3.7,"description":"Maison basse, portes-fenêtres et garage latéral","photos":"07,08,19","textured":false,"confidence":"Volume interprété ; façade peu visible"},"geometry":{"type":"Polygon","coordinates":[[[4.382112,48.947236],[4.382171,48.947209],[4.382215,48.947189],[4.382245,48.947217],[4.382142,48.947264],[4.382112,48.947236]]]}},{"type":"Feature","properties":{"part_id":75,"osm_id":"way/156774840","group":"nerval-20","eaves":3,"height":4.8,"description":"Maison basse, portes-fenêtres et garage latéral","photos":"19,07,08","textured":true,"confidence":"Façade observée ; dimensions estimées"},"geometry":{"type":"Polygon","coordinates":[[[4.382171,48.947209],[4.382112,48.947236],[4.382085,48.947249],[4.382039,48.94727],[4.382004,48.947237],[4.381966,48.947202],[4.382099,48.947141],[4.382171,48.947209]]]}},{"type":"Feature","properties":{"part_id":82,"osm_id":"way/156773522","group":"nerval-21","eaves":3,"height":7.1,"description":"Maison à quatre fenêtres de toit","photos":"07,19,06,22","textured":true,"confidence":"Façade observée ; dimensions estimées"},"geometry":{"type":"Polygon","coordinates":[[[4.381968,48.947165],[4.3819,48.947116],[4.381847,48.947078],[4.381939,48.947022],[4.38206,48.94711],[4.381968,48.947165]]]}},{"type":"Feature","properties":{"part_id":85,"osm_id":"way/156773686","group":"nerval-22","eaves":2.4,"height":2.9,"description":"Maison au carrefour, volets bois","photos":"06,22","textured":false,"confidence":"Volume interprété ; façade peu visible"},"geometry":{"type":"Polygon","coordinates":[[[4.381845,48.947034],[4.381832,48.947044],[4.381816,48.947035],[4.381799,48.947025],[4.381812,48.947015],[4.381845,48.947034]]]}},{"type":"Feature","properties":{"part_id":88,"osm_id":"way/156772371","group":"nerval-22","eaves":3,"height":7.2,"description":"Maison au carrefour, volets bois","photos":"22,06","textured":true,"confidence":"Façade observée ; dimensions estimées"},"geometry":{"type":"Polygon","coordinates":[[[4.381865,48.946976],[4.381812,48.947015],[4.381799,48.947025],[4.38176,48.947054],[4.381658,48.946995],[4.381763,48.946917],[4.381806,48.946942],[4.381865,48.946976]]]}},{"type":"Feature","properties":{"part_id":89,"osm_id":"way/396532615","group":"nerval-22","eaves":2.5,"height":3.2,"description":"Maison au carrefour, volets bois","photos":"06,22","textured":false,"confidence":"Volume interprété ; façade peu visible"},"geometry":{"type":"Polygon","coordinates":[[[4.381812,48.947015],[4.381865,48.946976],[4.381896,48.946953],[4.381899,48.94695],[4.381932,48.946969],[4.381845,48.947034],[4.381812,48.947015]]]}},{"type":"Feature","properties":{"part_id":90,"osm_id":"way/396532585","group":"nerval-22","eaves":2.5,"height":3.2,"description":"Maison au carrefour, volets bois","photos":"06,22","textured":false,"confidence":"Volume interprété ; façade peu visible"},"geometry":{"type":"Polygon","coordinates":[[[4.381806,48.946942],[4.381837,48.946919],[4.381896,48.946953],[4.381865,48.946976],[4.381806,48.946942]]]}},{"type":"Feature","properties":{"part_id":91,"osm_id":"way/156773306","group":"nerval-23","eaves":2.4,"height":2.9,"description":"Maison à pignon, cheminée et conifère","photos":"06,22,23","textured":false,"confidence":"Volume interprété ; façade peu visible"},"geometry":{"type":"Polygon","coordinates":[[[4.381669,48.946932],[4.381657,48.946944],[4.381639,48.946936],[4.38162,48.946928],[4.381632,48.946916],[4.381669,48.946932]]]}},{"type":"Feature","properties":{"part_id":93,"osm_id":"way/156774875","group":"nerval-23","eaves":3,"height":7.2,"description":"Maison à pignon, cheminée et conifère","photos":"22,06,23","textured":true,"confidence":"Façade observée ; dimensions estimées"},"geometry":{"type":"Polygon","coordinates":[[[4.381632,48.946916],[4.38162,48.946928],[4.381587,48.946961],[4.381476,48.946914],[4.381562,48.946825],[4.381674,48.946872],[4.381632,48.946916]]]}},{"type":"Feature","properties":{"part_id":95,"osm_id":"way/396532602","group":"nerval-23","eaves":2.5,"height":3.2,"description":"Maison à pignon, cheminée et conifère","photos":"06,22,23","textured":false,"confidence":"Volume interprété ; façade peu visible"},"geometry":{"type":"Polygon","coordinates":[[[4.381674,48.946872],[4.381701,48.946844],[4.38174,48.946861],[4.381669,48.946932],[4.381632,48.946916],[4.381674,48.946872]]]}},{"type":"Feature","properties":{"part_id":96,"osm_id":"way/156774221","group":"nerval-24","eaves":3,"height":5.3,"description":"Numéro 33 visible, maison en L et bouleau","photos":"23,05,06,24","textured":true,"confidence":"Façade observée ; dimensions estimées"},"geometry":{"type":"Polygon","coordinates":[[[4.381313,48.94675],[4.381463,48.946794],[4.381408,48.946875],[4.38137,48.946863],[4.381332,48.946852],[4.381301,48.946898],[4.381227,48.946876],[4.381313,48.94675]]]}},{"type":"Feature","properties":{"part_id":100,"osm_id":"way/396532609","group":"nerval-25","eaves":3,"height":6.9,"description":"Maisons jumelées, garages bas et lisses blanches","photos":"04,05,23,24","textured":true,"confidence":"Façade observée ; dimensions estimées"},"geometry":{"type":"Polygon","coordinates":[[[4.381037,48.946807],[4.381097,48.946736],[4.38118,48.946766],[4.38112,48.946837],[4.381075,48.946821],[4.381037,48.946807]]]}},{"type":"Feature","properties":{"part_id":102,"osm_id":"way/156774503","group":"nerval-25","eaves":5.5,"height":6.9,"description":"Maisons jumelées, garages bas et lisses blanches","photos":"04,05,23,24","textured":true,"confidence":"Façade observée ; dimensions estimées"},"geometry":{"type":"Polygon","coordinates":[[[4.381097,48.946736],[4.381037,48.946807],[4.381035,48.94681],[4.380995,48.946795],[4.381062,48.946716],[4.381101,48.946731],[4.381097,48.946736]]]}},{"type":"Feature","properties":{"part_id":103,"osm_id":"way/156772445","group":"nerval-25","eaves":5.5,"height":6.9,"description":"Maisons jumelées, garages bas et lisses blanches","photos":"04,05,23,24","textured":true,"confidence":"Façade observée ; dimensions estimées"},"geometry":{"type":"Polygon","coordinates":[[[4.381018,48.946707],[4.381022,48.946702],[4.381024,48.946703],[4.381062,48.946716],[4.380995,48.946795],[4.380955,48.946781],[4.380959,48.946776],[4.381018,48.946707]]]}},{"type":"Feature","properties":{"part_id":104,"osm_id":"way/396532587","group":"nerval-25","eaves":3,"height":6.9,"description":"Maisons jumelées, garages bas et lisses blanches","photos":"04,05,23,24","textured":true,"confidence":"Façade observée ; dimensions estimées"},"geometry":{"type":"Polygon","coordinates":[[[4.381018,48.946707],[4.380959,48.946776],[4.380931,48.946766],[4.380878,48.946747],[4.380937,48.946677],[4.381018,48.946707]]]}},{"type":"Feature","properties":{"part_id":107,"osm_id":"way/396532582","group":"nerval-25","eaves":2.5,"height":3.2,"description":"Maisons jumelées, garages bas et lisses blanches","photos":"04,05,23,24","textured":false,"confidence":"Volume interprété ; façade peu visible"},"geometry":{"type":"Polygon","coordinates":[[[4.381062,48.946716],[4.381024,48.946703],[4.381042,48.946682],[4.38108,48.946695],[4.381062,48.946716]]]}},{"type":"Feature","properties":{"part_id":109,"osm_id":"way/396532611","group":"nerval-26","eaves":5.5,"height":6.9,"description":"Maisons jumelées, clôtures claires","photos":"04,26","textured":false,"confidence":"Volume interprété ; façade peu visible"},"geometry":{"type":"Polygon","coordinates":[[[4.38078,48.946622],[4.380861,48.946658],[4.380797,48.94672],[4.380756,48.946702],[4.380715,48.946684],[4.380727,48.946673],[4.38078,48.946622]]]}},{"type":"Feature","properties":{"part_id":110,"osm_id":"way/156772267","group":"nerval-26","eaves":5.5,"height":6.9,"description":"Maisons jumelées, clôtures claires","photos":"04,26","textured":false,"confidence":"Volume interprété ; façade peu visible"},"geometry":{"type":"Polygon","coordinates":[[[4.38078,48.946622],[4.380727,48.946673],[4.380694,48.946658],[4.380691,48.946661],[4.38068,48.946657],[4.380748,48.946592],[4.380791,48.946611],[4.38078,48.946622]]]}},{"type":"Feature","properties":{"part_id":111,"osm_id":"way/156772962","group":"nerval-26","eaves":3,"height":6.9,"description":"Maisons jumelées, clôtures claires","photos":"04,26","textured":false,"confidence":"Volume interprété ; façade peu visible"},"geometry":{"type":"Polygon","coordinates":[[[4.38068,48.946657],[4.380649,48.946643],[4.380613,48.946627],[4.380681,48.946561],[4.380748,48.946592],[4.38068,48.946657]]]}},{"type":"Feature","properties":{"part_id":113,"osm_id":"way/156774730","group":"nerval-27","eaves":5.5,"height":6.9,"description":"Secteur 45, façade à deux niveaux","photos":"04,01,27","textured":true,"confidence":"Façade observée ; dimensions estimées"},"geometry":{"type":"Polygon","coordinates":[[[4.380576,48.946549],[4.380581,48.946545],[4.380617,48.946562],[4.380537,48.946634],[4.380501,48.946616],[4.380505,48.946612],[4.380576,48.946549]]]}},{"type":"Feature","properties":{"part_id":114,"osm_id":"way/396532596","group":"nerval-27","eaves":3,"height":7,"description":"Secteur 45, façade à deux niveaux","photos":"04,01,27","textured":true,"confidence":"Façade observée ; dimensions estimées"},"geometry":{"type":"Polygon","coordinates":[[[4.380505,48.946612],[4.380474,48.946597],[4.380431,48.946577],[4.380502,48.946513],[4.380576,48.946549],[4.380505,48.946612]]]}},{"type":"Feature","properties":{"part_id":116,"osm_id":"way/156773382","group":"nerval-28","eaves":2.5,"height":3.2,"description":"Maison de fond d’impasse, pignon et auvent","photos":"01,04,27","textured":false,"confidence":"Volume interprété ; façade peu visible"},"geometry":{"type":"Polygon","coordinates":[[[4.380438,48.946524],[4.380427,48.946534],[4.38039,48.946517],[4.3804,48.946507],[4.380438,48.946524]]]}},{"type":"Feature","properties":{"part_id":117,"osm_id":"way/156774870","group":"nerval-28","eaves":3,"height":7.3,"description":"Maison de fond d’impasse, pignon et auvent","photos":"01,04,27","textured":false,"confidence":"Volume interprété ; façade peu visible"},"geometry":{"type":"Polygon","coordinates":[[[4.380448,48.946464],[4.3804,48.946507],[4.38039,48.946517],[4.380354,48.946548],[4.380296,48.946521],[4.380244,48.946496],[4.380338,48.946411],[4.380448,48.946464]]]}},{"type":"Feature","properties":{"part_id":118,"osm_id":"way/396532591","group":"nerval-28","eaves":2.5,"height":3.4,"description":"Maison de fond d’impasse, pignon et auvent","photos":"01,04,27","textured":false,"confidence":"Volume interprété ; façade peu visible"},"geometry":{"type":"Polygon","coordinates":[[[4.3804,48.946507],[4.380448,48.946464],[4.380478,48.946436],[4.380515,48.946454],[4.380438,48.946524],[4.3804,48.946507]]]}},{"type":"Feature","properties":{"part_id":112,"osm_id":"way/156772200","group":"nerval-29","eaves":3,"height":4.7,"description":"Secteur 42, façade basse et volume arrière à étage","photos":"03,01,02,27","textured":true,"confidence":"Façade observée ; dimensions estimées"},"geometry":{"type":"Polygon","coordinates":[[[4.379918,48.946553],[4.379927,48.946546],[4.37997,48.946567],[4.379997,48.94658],[4.379927,48.946642],[4.379965,48.94666],[4.379922,48.9467],[4.379817,48.946649],[4.379849,48.946618],[4.379918,48.946553]]]}},{"type":"Feature","properties":{"part_id":115,"osm_id":"way/396532584","group":"nerval-29","eaves":5.6,"height":6.8999999999999995,"description":"Secteur 42, façade basse et volume arrière à étage","photos":"02,01,03,27","textured":true,"confidence":"Façade observée ; dimensions estimées"},"geometry":{"type":"Polygon","coordinates":[[[4.379918,48.946553],[4.379849,48.946618],[4.379776,48.946582],[4.379846,48.94652],[4.379918,48.946553]]]}},{"type":"Feature","properties":{"part_id":106,"osm_id":"way/396532583","group":"nerval-30","eaves":2.6,"height":3.6,"description":"Secteur 40, toiture pentue et volets bois","photos":"03,26,27","textured":false,"confidence":"Volume interprété ; façade peu visible"},"geometry":{"type":"Polygon","coordinates":[[[4.380059,48.946733],[4.380038,48.946752],[4.379959,48.946715],[4.37998,48.946696],[4.380059,48.946733]]]}},{"type":"Feature","properties":{"part_id":108,"osm_id":"way/156772454","group":"nerval-30","eaves":3,"height":7.1,"description":"Secteur 40, toiture pentue et volets bois","photos":"27,03,26","textured":true,"confidence":"Façade observée ; dimensions estimées"},"geometry":{"type":"Polygon","coordinates":[[[4.37998,48.946696],[4.379979,48.946695],[4.380063,48.94662],[4.380111,48.946642],[4.380107,48.946646],[4.38013,48.946657],[4.380172,48.946677],[4.380165,48.946683],[4.3801,48.946742],[4.380092,48.946749],[4.380059,48.946733],[4.37998,48.946696]]]}},{"type":"Feature","properties":{"part_id":101,"osm_id":"way/396532581","group":"nerval-31","eaves":5.5,"height":7,"description":"Façade surélevée aux volets bleus","photos":"26,03","textured":true,"confidence":"Façade observée ; dimensions estimées"},"geometry":{"type":"Polygon","coordinates":[[[4.380184,48.946782],[4.380238,48.946733],[4.380301,48.946763],[4.380247,48.946812],[4.380184,48.946782]]]}},{"type":"Feature","properties":{"part_id":105,"osm_id":"way/396532614","group":"nerval-31","eaves":5.5,"height":7,"description":"Façade surélevée aux volets bleus","photos":"26,03","textured":true,"confidence":"Façade observée ; dimensions estimées"},"geometry":{"type":"Polygon","coordinates":[[[4.380238,48.946733],[4.380184,48.946782],[4.3801,48.946742],[4.380165,48.946683],[4.380217,48.946707],[4.38025,48.946723],[4.380238,48.946733]]]}},{"type":"Feature","properties":{"part_id":92,"osm_id":"way/396532590","group":"nerval-32","eaves":2.8,"height":4,"description":"Maison d’angle de la boucle, pignon sur rue","photos":"25,03,26","textured":true,"confidence":"Façade observée ; dimensions estimées"},"geometry":{"type":"Polygon","coordinates":[[[4.380263,48.946878],[4.380371,48.946918],[4.380336,48.946959],[4.3802,48.94691],[4.380235,48.946868],[4.380263,48.946878]]]}},{"type":"Feature","properties":{"part_id":94,"osm_id":"way/156774577","group":"nerval-32","eaves":5.4,"height":7,"description":"Maison d’angle de la boucle, pignon sur rue","photos":"25,03,26","textured":true,"confidence":"Façade observée ; dimensions estimées"},"geometry":{"type":"Polygon","coordinates":[[[4.380371,48.946918],[4.380263,48.946878],[4.380297,48.946838],[4.380413,48.946881],[4.380393,48.946904],[4.380379,48.946921],[4.380371,48.946918]]]}},{"type":"Feature","properties":{"part_id":99,"osm_id":"way/156772753","group":"nerval-32","eaves":3,"height":7.2,"description":"Maison d’angle de la boucle, pignon sur rue","photos":"26,03,25","textured":true,"confidence":"Façade observée ; dimensions estimées"},"geometry":{"type":"Polygon","coordinates":[[[4.380297,48.946838],[4.380366,48.946756],[4.380482,48.946798],[4.38045,48.946837],[4.380413,48.946881],[4.380297,48.946838]]]}},{"type":"Feature","properties":{"part_id":80,"osm_id":"way/156773964","group":"nerval-33","eaves":3,"height":7,"description":"Pignon blanc et extension à toit plat","photos":"05,24,25","textured":false,"confidence":"Volume interprété ; façade peu visible"},"geometry":{"type":"Polygon","coordinates":[[[4.380938,48.947112],[4.38094,48.947113],[4.380853,48.947185],[4.380752,48.947133],[4.380797,48.947096],[4.38084,48.947061],[4.380938,48.947112]]]}},{"type":"Feature","properties":{"part_id":83,"osm_id":"way/156772248","group":"nerval-33","eaves":3,"height":7,"description":"Pignon blanc et extension à toit plat","photos":"24,05,25","textured":true,"confidence":"Façade observée ; dimensions estimées"},"geometry":{"type":"Polygon","coordinates":[[[4.381011,48.947051],[4.380938,48.947112],[4.38084,48.947061],[4.380837,48.947059],[4.380879,48.947024],[4.380925,48.946986],[4.380964,48.947007],[4.381004,48.947027],[4.380989,48.94704],[4.381011,48.947051]]]}},{"type":"Feature","properties":{"part_id":84,"osm_id":"way/396532610","group":"nerval-33","eaves":2.6,"height":2.6,"description":"Pignon blanc et extension à toit plat","photos":"05,24,25","textured":false,"confidence":"Volume interprété ; façade peu visible"},"geometry":{"type":"Polygon","coordinates":[[[4.381004,48.947027],[4.381046,48.946993],[4.381092,48.947017],[4.381035,48.947064],[4.381011,48.947051],[4.380989,48.94704],[4.381004,48.947027]]]}},{"type":"Feature","properties":{"part_id":87,"osm_id":"way/156772773","group":"nerval-33","eaves":2.8,"height":2.8,"description":"Pignon blanc et extension à toit plat","photos":"05,24,25","textured":false,"confidence":"Volume interprété ; façade peu visible"},"geometry":{"type":"Polygon","coordinates":[[[4.381006,48.946972],[4.381046,48.946993],[4.381004,48.947027],[4.380964,48.947007],[4.381006,48.946972]]]}},{"type":"Feature","properties":{"part_id":79,"osm_id":"way/156774262","group":"nerval-34","eaves":3,"height":5,"description":"Maison à croupe, haie entourant le carrefour","photos":"21,05,06,22,24","textured":true,"confidence":"Façade observée ; dimensions estimées"},"geometry":{"type":"Polygon","coordinates":[[[4.381054,48.947162],[4.381136,48.947084],[4.381188,48.947107],[4.381173,48.947122],[4.381188,48.947128],[4.381283,48.947171],[4.381215,48.947235],[4.381054,48.947162]]]}}]}