{"type":"FeatureCollection","features":[{"type":"Feature","id":"node/26692266","properties":{"osm_id":"node/26692266","name":"Châlons-en-Champagne","kind":"town"},"geometry":{"type":"Point","coordinates":[4.362885,48.956622]}},{"type":"Feature","id":"node/26695572","properties":{"osm_id":"node/26695572","name":"Sarry","kind":"village"},"geometry":{"type":"Point","coordinates":[4.40638,48.920079]}},{"type":"Feature","id":"node/26697266","properties":{"osm_id":"node/26697266","name":"Saint-Memmie","kind":"village"},"geometry":{"type":"Point","coordinates":[4.384729,48.951216]}},{"type":"Feature","id":"node/26697448","properties":{"osm_id":"node/26697448","name":"Fagnières","kind":"village"},"geometry":{"type":"Point","coordinates":[4.31695,48.964463]}},{"type":"Feature","id":"node/263750861","properties":{"osm_id":"node/263750861","name":"Saint-Étienne-au-Temple","kind":"village"},"geometry":{"type":"Point","coordinates":[4.420182,49.027598]}},{"type":"Feature","id":"node/653496985","properties":{"osm_id":"node/653496985","name":"Recy","kind":"village"},"geometry":{"type":"Point","coordinates":[4.315438,48.989446]}},{"type":"Feature","id":"node/653500685","properties":{"osm_id":"node/653500685","name":"Coolus","kind":"village"},"geometry":{"type":"Point","coordinates":[4.353783,48.923577]}},{"type":"Feature","id":"node/654049514","properties":{"osm_id":"node/654049514","name":"Compertrix","kind":"village"},"geometry":{"type":"Point","coordinates":[4.346703,48.93956]}},{"type":"Feature","id":"node/654259443","properties":{"osm_id":"node/654259443","name":"La Veuve","kind":"village"},"geometry":{"type":"Point","coordinates":[4.316166,49.03062]}},{"type":"Feature","id":"node/655125180","properties":{"osm_id":"node/655125180","name":"Moncetz-Longevas","kind":"village"},"geometry":{"type":"Point","coordinates":[4.428213,48.907728]}},{"type":"Feature","id":"node/655133251","properties":{"osm_id":"node/655133251","name":"Saint-Gibrien","kind":"village"},"geometry":{"type":"Point","coordinates":[4.299613,48.973117]}},{"type":"Feature","id":"node/655135686","properties":{"osm_id":"node/655135686","name":"Saint-Martin-sur-le-Pré","kind":"village"},"geometry":{"type":"Point","coordinates":[4.336664,48.977621]}},{"type":"Feature","id":"node/975681964","properties":{"osm_id":"node/975681964","name":"Chepy","kind":"village"},"geometry":{"type":"Point","coordinates":[4.437333,48.899999]}},{"type":"Feature","id":"node/1143892257","properties":{"osm_id":"node/1143892257","name":"Juvigny","kind":"village"},"geometry":{"type":"Point","coordinates":[4.262535,49.019412]}},{"type":"Feature","id":"node/1209454234","properties":{"osm_id":"node/1209454234","name":"Villers-le-Château","kind":"village"},"geometry":{"type":"Point","coordinates":[4.268776,48.959055]}},{"type":"Feature","id":"node/1251202150","properties":{"osm_id":"node/1251202150","name":"Melette","kind":"hamlet"},"geometry":{"type":"Point","coordinates":[4.440945,48.99378]}},{"type":"Feature","id":"node/1698659225","properties":{"osm_id":"node/1698659225","name":"Sogny-aux-Moulins","kind":"village"},"geometry":{"type":"Point","coordinates":[4.396584,48.902546]}},{"type":"Feature","id":"node/1698659271","properties":{"osm_id":"node/1698659271","name":"Écury-sur-Coole","kind":"village"},"geometry":{"type":"Point","coordinates":[4.335038,48.894529]}}]}